NORAD_CAT_ID,OBJECT_NAME,OBJECT_TYPE,EPOCH,MEAN_MOTION,ECCENTRICITY,INCLINATION,RA_OF_ASC_NODE,ARG_OF_PERICENTER,MEAN_ANOMALY,BSTAR,MEAN_MOTION_DOT,MEAN_MOTION_DDOT,TLE_LINE0,TLE_LINE1,TLE_LINE2,SEMIMAJOR_AXIS,PERIOD,APOGEE,PERIGEE,DECAYED
56492.0,STARLINK-5846,PAYLOAD,2023-05-29 22:00:00,15.69888158,0.0003506,69.9998,191.3258,270.5916,230.4372,0.00055714,0.00067219,0.0,0 STARLINK-5846,1 56492U 23064AW  23149.91667824  .00067219  00000-0  55714-3 0  9993,2 56492  69.9998 191.3258 0003506 270.5916 230.4372 15.69888158  3396,6737.354,91.726,361.581,356.857,0.0
56492.0,STARLINK-5846,PAYLOAD,2023-05-30 11:09:51,15.69942873,0.0003541,69.9992,189.7839,272.771,87.308,0.00010757,0.00012752,0.0,0 STARLINK-5846,1 56492U 23064AW  23150.46517999  .00012752  00000-0  10757-3 0  9992,2 56492  69.9992 189.7839 0003541 272.7710  87.3080 15.69942873  3470,6737.197,91.723,361.448,356.677,0.0
56492.0,STARLINK-5846,PAYLOAD,2023-05-30 12:41:36,15.699481,0.0003547,69.9993,189.6046,272.4775,87.6014,0.00015859,0.00018919,0.0,0 STARLINK-5846,1 56492U 23064AW  23150.52889648  .00018919  00000-0  15859-3 0  9991,2 56492  69.9993 189.6046 0003547 272.4775  87.6014 15.69948100  3136,6737.182,91.723,361.437,356.658,0.0
56492.0,STARLINK-5846,PAYLOAD,2023-05-30 18:48:37,15.69937348,0.0003449,69.9995,188.8883,273.5784,86.5017,0.00014329,0.00017061,0.0,0 STARLINK-5846,1 56492U 23064AW  23150.78376661  .00017061  00000-0  14329-3 0  9993,2 56492  69.9995 188.8883 0003449 273.5784  86.5017 15.69937348  3527,6737.213,91.723,361.402,356.755,0.0
56492.0,STARLINK-5846,PAYLOAD,2023-05-30 20:20:22,15.69943272,0.0003444,69.9995,188.7091,273.9084,86.1718,0.00020714,0.00024788,0.0,0 STARLINK-5846,1 56492U 23064AW  23150.84748294  .00024788  00000-0  20714-3 0  9994,2 56492  69.9995 188.7091 0003444 273.9084  86.1718 15.69943272  3188,6737.196,91.723,361.382,356.741,0.0
56492.0,STARLINK-5846,PAYLOAD,2023-05-31 10:06:08,15.69939963,0.0003401,69.9992,187.0967,274.7073,85.3735,0.00017647,0.00021074,0.0,0 STARLINK-5846,1 56492U 23064AW  23151.42093281  .00021074  00000-0  17647-3 0  9994,2 56492  69.9992 187.0967 0003401 274.7073  85.3735 15.69939963  3620,6737.206,91.723,361.362,356.779,0.0
56492.0,STARLINK-5846,PAYLOAD,2023-05-31 13:09:39,15.69922894,0.0003386,69.9991,186.7383,276.3729,83.7081,6.7329e-05,7.89e-05,0.0,0 STARLINK-5846,1 56492U 23064AW  23151.54836946  .00007890  00000-0  67329-4 0  9993,2 56492  69.9991 186.7383 0003386 276.3729  83.7081 15.69922894  3299,6737.255,91.724,361.401,356.838,0.0
56492.0,STARLINK-5846,PAYLOAD,2023-05-31 19:16:39,15.6992917,0.0003313,69.9992,186.022,275.05,85.0318,6.4067e-05,7.499e-05,0.0,0 STARLINK-5846,1 56492U 23064AW  23151.80323516  .00007499  00000-0  64067-4 0  9997,2 56492  69.9992 186.0220 0003313 275.0500  85.0318 15.69929170  3681,6737.237,91.724,361.334,356.87,0.0
56492.0,STARLINK-5846,PAYLOAD,2023-05-31 20:48:24,15.69936986,0.0003466,69.9992,185.843,275.9428,84.1373,0.00010032,0.00011873,0.0,0 STARLINK-5846,1 56492U 23064AW  23151.86694991  .00011873  00000-0  10032-3 0  9994,2 56492  69.9992 185.8430 0003466 275.9428  84.1373 15.69936986  3345,6737.214,91.723,361.414,356.744,0.0
56492.0,STARLINK-5846,PAYLOAD,2023-06-01 02:55:25,15.69921797,0.0003335,69.9991,185.1258,270.7018,89.3795,5.4007e-05,6.285e-05,0.0,0 STARLINK-5846,1 56492U 23064AW  23152.12182019  .00006285  00000-0  54007-4 0  9999,2 56492  69.9991 185.1258 0003335 270.7018  89.3795 15.69921797  3730,6737.258,91.724,361.37,356.876,0.0
56492.0,STARLINK-5846,PAYLOAD,2023-06-01 10:34:10,15.69943377,0.0003113,69.9989,184.2302,265.8743,94.2096,0.00024311,0.00029143,0.0,0 STARLINK-5846,1 56492U 23064AW  23152.44040166  .00029143  00000-0  24311-3 0  9992,2 56492  69.9989 184.2302 0003113 265.8743  94.2096 15.69943377  3435,6737.196,91.723,361.158,356.964,0.0
56492.0,STARLINK-5846,PAYLOAD,2023-06-01 19:44:41,15.69940835,0.000325,69.9989,183.1559,270.5814,89.5009,0.00020111,0.00024055,0.0,0 STARLINK-5846,1 56492U 23064AW  23152.82270108  .00024055  00000-0  20111-3 0  9996,2 56492  69.9989 183.1559 0003250 270.5814  89.5009 15.69940835  3494,6737.203,91.723,361.258,356.879,0.0
56492.0,STARLINK-5846,PAYLOAD,2023-06-02 09:30:27,15.69935047,0.000345,69.9984,181.5431,264.4544,95.6258,0.00017998,0.00021494,0.0,0 STARLINK-5846,1 56492U 23064AW  23153.39615180  .00021494  00000-0  17998-3 0  9995,2 56492  69.9984 181.5431 0003450 264.4544  95.6258 15.69935047  3936,6737.22,91.724,361.409,356.76,0.0
56492.0,STARLINK-5846,PAYLOAD,2023-06-02 11:02:12,15.69932543,0.0003422,69.9984,181.364,265.71,94.3705,0.00015845,0.00018889,0.0,0 STARLINK-5846,1 56492U 23064AW  23153.45986903  .00018889  00000-0  15845-3 0  9999,2 56492  69.9984 181.3640 0003422 265.7100  94.3705 15.69932543  3590,6737.227,91.724,361.397,356.787,0.0
56492.0,STARLINK-5846,PAYLOAD,2023-06-03 02:19:44,15.69934384,0.0003226,69.998,179.5723,284.719,75.3648,0.00019902,0.00023795,0.0,0 STARLINK-5846,1 56492U 23064AW  23154.09704093  .00023795  00000-0  19902-3 0  9998,2 56492  69.9980 179.5723 0003226 284.7190  75.3648 15.69934384  4040,6737.222,91.724,361.26,356.913,0.0
56492.0,STARLINK-5846,PAYLOAD,2023-06-03 09:58:29,15.69932656,0.0003499,69.9982,178.6762,274.2929,85.7867,9.3286e-05,0.00011023,0.0,0 STARLINK-5846,1 56492U 23064AW  23154.41562192  .00011023  00000-0  93286-4 0  9995,2 56492  69.9982 178.6762 0003499 274.2929  85.7867 15.69932656  4094,6737.227,91.724,361.449,356.734,0.0
56492.0,STARLINK-5846,PAYLOAD,2023-06-03 11:30:14,15.69932979,0.0003453,69.9985,178.4962,274.088,85.9921,9.4279e-05,0.00011143,0.0,0 STARLINK-5846,1 56492U 23064AW  23154.47933870  .00011143  00000-0  94279-4 0  9992,2 56492  69.9985 178.4962 0003453 274.0880  85.9921 15.69932979  3754,6737.226,91.724,361.417,356.764,0.0
56492.0,STARLINK-5846,PAYLOAD,2023-06-03 19:09:00,15.69925165,0.0003113,69.9988,177.603,272.0073,88.0766,3.9581e-05,4.549e-05,0.0,0 STARLINK-5846,1 56492U 23064AW  23154.79792374  .00004549  00000-0  39581-4 0  9996,2 56492  69.9988 177.6030 0003113 272.0073  88.0766 15.69925165  3805,6737.248,91.724,361.21,357.016,0.0
56492.0,STARLINK-5846,PAYLOAD,2023-06-04 02:47:46,15.699299,0.0003406,69.9987,176.7054,265.6892,94.3915,3.8526e-05,4.423e-05,0.0,0 STARLINK-5846,1 56492U 23064AW  23155.11650497  .00004423  00000-0  38526-4 0  9991,2 56492  69.9987 176.7054 0003406 265.6892  94.3915 15.69929900  4204,6737.235,91.724,361.394,356.805,0.0
56492.0,STARLINK-5846,PAYLOAD,2023-06-04 11:58:16,15.6992815,0.0003416,69.9989,175.6315,268.8975,91.183,2.5583e-05,2.865e-05,0.0,0 STARLINK-5846,1 56492U 23064AW  23155.49880565  .00002865  00000-0  25583-4 0  9990,2 56492  69.9989 175.6315 0003416 268.8975  91.1830 15.69928150  3916,6737.24,91.724,361.406,356.803,0.0
56492.0,STARLINK-5846,PAYLOAD,2023-06-04 15:01:46,15.69931283,0.0003404,69.9989,175.2736,268.6505,91.4301,3.605e-05,4.125e-05,0.0,0 STARLINK-5846,1 56492U 23064AW  23155.62623803  .00004125  00000-0  36050-4 0  9997,2 56492  69.9989 175.2736 0003404 268.6505  91.4301 15.69931283  3932,6737.231,91.724,361.389,356.802,0.0
56492.0,STARLINK-5846,PAYLOAD,2023-06-05 04:47:33,15.69922576,0.000328,69.9997,173.6608,276.2224,83.8598,1.5401e-05,1.639e-05,0.0,0 STARLINK-5846,1 56492U 23064AW  23156.19969222  .00001639  00000-0  15401-4 0  9992,2 56492  69.9997 173.6608 0003280 276.2224  83.8598 15.69922576  4373,6737.256,91.724,361.33,356.911,0.0
56492.0,STARLINK-5846,PAYLOAD,2023-06-05 10:54:33,15.69924197,0.0003342,69.9986,172.9434,273.6308,86.4506,1.4975e-05,1.588e-05,0.0,0 STARLINK-5846,1 56492U 23064AW  23156.45455844  .00001588  00000-0  14975-4 0  9999,2 56492  69.9986 172.9434 0003342 273.6308  86.4506 15.69924197  4068,6737.251,91.724,361.367,356.864,0.0
56492.0,STARLINK-5846,PAYLOAD,2023-06-05 18:33:19,15.69924689,0.0003295,69.9989,172.0486,269.0904,90.9915,1.3261e-05,1.382e-05,0.0,0 STARLINK-5846,1 56492U 23064AW  23156.77314171  .00001382  00000-0  13261-4 0  9990,2 56492  69.9989 172.0486 0003295 269.0904  90.9915 15.69924689  4113,6737.249,91.724,361.334,356.895,0.0
56492.0,STARLINK-5846,PAYLOAD,2023-06-06 08:19:05,15.69929731,0.0003405,69.9991,170.4369,267.1222,92.9584,1.889e-05,2.06e-05,0.0,0 STARLINK-5846,1 56492U 23064AW  23157.34658903  .00002060  00000-0  18890-4 0  9995,2 56492  69.9991 170.4369 0003405 267.1222  92.9584 15.69929731  4558,6737.235,91.724,361.394,356.806,0.0
56492.0,STARLINK-5846,PAYLOAD,2023-06-06 09:50:50,15.69927722,0.0003431,69.9991,170.2577,267.0616,93.0187,1.5155e-05,1.61e-05,0.0,0 STARLINK-5846,1 56492U 23064AW  23157.41030683  .00001610  00000-0  15155-4 0  9993,2 56492  69.9991 170.2577 0003431 267.0616  93.0187 15.69927722  4214,6737.241,91.724,361.417,356.794,0.0
56492.0,STARLINK-5846,PAYLOAD,2023-06-06 23:36:36,15.6992529,0.0003434,69.9998,168.6457,275.3147,84.7656,1.2053e-05,1.237e-05,0.0,0 STARLINK-5846,1 56492U 23064AW  23157.98375952  .00001237  00000-0  12053-4 0  9995,2 56492  69.9998 168.6457 0003434 275.3147  84.7656 15.69925290  4657,6737.248,91.724,361.426,356.799,0.0
56492.0,STARLINK-5846,PAYLOAD,2023-06-07 10:18:52,15.69922556,0.000319,70.0002,167.3933,265.336,94.7472,1.1421e-05,1.161e-05,0.0,0 STARLINK-5846,1 56492U 23064AW  23158.42977789  .00001161  00000-0  11421-4 0  9995,2 56492  70.0002 167.3933 0003190 265.3360  94.7472 15.69922556  4374,6737.256,91.724,361.27,356.971,0.0
56492.0,STARLINK-5846,PAYLOAD,2023-06-07 17:57:38,15.69924421,0.0003117,70.0002,166.4964,270.1024,89.9815,2.4559e-05,2.741e-05,0.0,0 STARLINK-5846,1 56492U 23064AW  23158.74836137  .00002741  00000-0  24559-4 0  9992,2 56492  70.0002 166.4964 0003117 270.1024  89.9815 15.69924421  4424,6737.25,91.724,361.215,357.015,0.0
56492.0,STARLINK-5846,PAYLOAD,2023-06-08 01:36:23,15.69930084,0.0003362,69.9998,165.6011,268.0868,91.9942,1.9346e-05,2.115e-05,0.0,0 STARLINK-5846,1 56492U 23064AW  23159.06694077  .00002115  00000-0  19346-4 0  9996,2 56492  69.9998 165.6011 0003362 268.0868  91.9942 15.69930084  4823,6737.234,91.724,361.364,356.834,0.0
